<?xml version="1.0" encoding="UTF-8"?>
<ndm xmlns:xsi="http://www.w3.org/2001/XMLSchema-instance" xsi:noNamespaceSchemaLocation="https://sanaregistry.org/r/ndmxml_unqualified/ndmxml-2.0.0-master-2.0.xsd">
<omm id="CCSDS_OMM_VERS" version="2.0">
<header><CREATION_DATE/><ORIGINATOR/></header><body><segment><metadata><OBJECT_NAME>ORBCOMM FM33</OBJECT_NAME><OBJECT_ID>1999-065D</OBJECT_ID><CENTER_NAME>EARTH</CENTER_NAME><REF_FRAME>TEME</REF_FRAME><TIME_SYSTEM>UTC</TIME_SYSTEM><MEAN_ELEMENT_THEORY>SGP4</MEAN_ELEMENT_THEORY></metadata><data><meanElements><EPOCH>2025-02-02T03:09:27.110592</EPOCH><MEAN_MOTION>14.39383943</MEAN_MOTION><ECCENTRICITY>.0008692</ECCENTRICITY><INCLINATION>45.0279</INCLINATION><RA_OF_ASC_NODE>280.8092</RA_OF_ASC_NODE><ARG_OF_PERICENTER>97.4262</ARG_OF_PERICENTER><MEAN_ANOMALY>262.7575</MEAN_ANOMALY></meanElements><tleParameters><EPHEMERIS_TYPE>0</EPHEMERIS_TYPE><CLASSIFICATION_TYPE>U</CLASSIFICATION_TYPE><NORAD_CAT_ID>25983</NORAD_CAT_ID><ELEMENT_SET_NO>999</ELEMENT_SET_NO><REV_AT_EPOCH>31667</REV_AT_EPOCH><BSTAR>.10681E-2</BSTAR><MEAN_MOTION_DOT>.3213E-4</MEAN_MOTION_DOT><MEAN_MOTION_DDOT>0</MEAN_MOTION_DDOT></tleParameters></data></segment></body></omm>
<omm id="CCSDS_OMM_VERS" version="2.0">
<header><CREATION_DATE/><ORIGINATOR/></header><body><segment><metadata><OBJECT_NAME>ORBCOMM FM35</OBJECT_NAME><OBJECT_ID>1999-065F</OBJECT_ID><CENTER_NAME>EARTH</CENTER_NAME><REF_FRAME>TEME</REF_FRAME><TIME_SYSTEM>UTC</TIME_SYSTEM><MEAN_ELEMENT_THEORY>SGP4</MEAN_ELEMENT_THEORY></metadata><data><meanElements><EPOCH>2025-02-02T03:39:06.853824</EPOCH><MEAN_MOTION>14.36565505</MEAN_MOTION><ECCENTRICITY>.0002472</ECCENTRICITY><INCLINATION>45.0403</INCLINATION><RA_OF_ASC_NODE>14.5588</RA_OF_ASC_NODE><ARG_OF_PERICENTER>44.8701</ARG_OF_PERICENTER><MEAN_ANOMALY>315.2347</MEAN_ANOMALY></meanElements><tleParameters><EPHEMERIS_TYPE>0</EPHEMERIS_TYPE><CLASSIFICATION_TYPE>U</CLASSIFICATION_TYPE><NORAD_CAT_ID>25985</NORAD_CAT_ID><ELEMENT_SET_NO>999</ELEMENT_SET_NO><REV_AT_EPOCH>31555</REV_AT_EPOCH><BSTAR>.10395E-2</BSTAR><MEAN_MOTION_DOT>.2942E-4</MEAN_MOTION_DOT><MEAN_MOTION_DDOT>0</MEAN_MOTION_DDOT></tleParameters></data></segment></body></omm>
<omm id="CCSDS_OMM_VERS" version="2.0">
<header><CREATION_DATE/><ORIGINATOR/></header><body><segment><metadata><OBJECT_NAME>ORBCOMM FM38</OBJECT_NAME><OBJECT_ID>2008-031A</OBJECT_ID><CENTER_NAME>EARTH</CENTER_NAME><REF_FRAME>TEME</REF_FRAME><TIME_SYSTEM>UTC</TIME_SYSTEM><MEAN_ELEMENT_THEORY>SGP4</MEAN_ELEMENT_THEORY></metadata><data><meanElements><EPOCH>2025-02-02T01:34:13.536480</EPOCH><MEAN_MOTION>14.80290495</MEAN_MOTION><ECCENTRICITY>.0005973</ECCENTRICITY><INCLINATION>48.4381</INCLINATION><RA_OF_ASC_NODE>238.7565</RA_OF_ASC_NODE><ARG_OF_PERICENTER>180.4191</ARG_OF_PERICENTER><MEAN_ANOMALY>179.6720</MEAN_ANOMALY></meanElements><tleParameters><EPHEMERIS_TYPE>0</EPHEMERIS_TYPE><CLASSIFICATION_TYPE>U</CLASSIFICATION_TYPE><NORAD_CAT_ID>33060</NORAD_CAT_ID><ELEMENT_SET_NO>999</ELEMENT_SET_NO><REV_AT_EPOCH>89471</REV_AT_EPOCH><BSTAR>.64093E-3</BSTAR><MEAN_MOTION_DOT>.4726E-4</MEAN_MOTION_DOT><MEAN_MOTION_DDOT>0</MEAN_MOTION_DDOT></tleParameters></data></segment></body></omm>
<omm id="CCSDS_OMM_VERS" version="2.0">
<header><CREATION_DATE/><ORIGINATOR/></header><body><segment><metadata><OBJECT_NAME>ORBCOMM FM41</OBJECT_NAME><OBJECT_ID>2008-031B</OBJECT_ID><CENTER_NAME>EARTH</CENTER_NAME><REF_FRAME>TEME</REF_FRAME><TIME_SYSTEM>UTC</TIME_SYSTEM><MEAN_ELEMENT_THEORY>SGP4</MEAN_ELEMENT_THEORY></metadata><data><meanElements><EPOCH>2025-02-02T03:05:05.347968</EPOCH><MEAN_MOTION>14.79916531</MEAN_MOTION><ECCENTRICITY>.0005051</ECCENTRICITY><INCLINATION>48.4417</INCLINATION><RA_OF_ASC_NODE>245.7894</RA_OF_ASC_NODE><ARG_OF_PERICENTER>167.0377</ARG_OF_PERICENTER><MEAN_ANOMALY>345.2160</MEAN_ANOMALY></meanElements><tleParameters><EPHEMERIS_TYPE>0</EPHEMERIS_TYPE><CLASSIFICATION_TYPE>U</CLASSIFICATION_TYPE><NORAD_CAT_ID>33061</NORAD_CAT_ID><ELEMENT_SET_NO>999</ELEMENT_SET_NO><REV_AT_EPOCH>89466</REV_AT_EPOCH><BSTAR>.60651E-3</BSTAR><MEAN_MOTION_DOT>.442E-4</MEAN_MOTION_DOT><MEAN_MOTION_DDOT>0</MEAN_MOTION_DDOT></tleParameters></data></segment></body></omm>
<omm id="CCSDS_OMM_VERS" version="2.0">
<header><CREATION_DATE/><ORIGINATOR/></header><body><segment><metadata><OBJECT_NAME>ORBCOMM FM29</OBJECT_NAME><OBJECT_ID>2008-031C</OBJECT_ID><CENTER_NAME>EARTH</CENTER_NAME><REF_FRAME>TEME</REF_FRAME><TIME_SYSTEM>UTC</TIME_SYSTEM><MEAN_ELEMENT_THEORY>SGP4</MEAN_ELEMENT_THEORY></metadata><data><meanElements><EPOCH>2025-02-02T01:16:26.772960</EPOCH><MEAN_MOTION>14.79962680</MEAN_MOTION><ECCENTRICITY>.0006771</ECCENTRICITY><INCLINATION>48.4371</INCLINATION><RA_OF_ASC_NODE>254.0978</RA_OF_ASC_NODE><ARG_OF_PERICENTER>164.0980</ARG_OF_PERICENTER><MEAN_ANOMALY>351.7919</MEAN_ANOMALY></meanElements><tleParameters><EPHEMERIS_TYPE>0</EPHEMERIS_TYPE><CLASSIFICATION_TYPE>U</CLASSIFICATION_TYPE><NORAD_CAT_ID>33062</NORAD_CAT_ID><ELEMENT_SET_NO>999</ELEMENT_SET_NO><REV_AT_EPOCH>89451</REV_AT_EPOCH><BSTAR>.63283E-3</BSTAR><MEAN_MOTION_DOT>.4627E-4</MEAN_MOTION_DOT><MEAN_MOTION_DDOT>0</MEAN_MOTION_DDOT></tleParameters></data></segment></body></omm>
<omm id="CCSDS_OMM_VERS" version="2.0">
<header><CREATION_DATE/><ORIGINATOR/></header><body><segment><metadata><OBJECT_NAME>ORBCOMM FM39</OBJECT_NAME><OBJECT_ID>2008-031D</OBJECT_ID><CENTER_NAME>EARTH</CENTER_NAME><REF_FRAME>TEME</REF_FRAME><TIME_SYSTEM>UTC</TIME_SYSTEM><MEAN_ELEMENT_THEORY>SGP4</MEAN_ELEMENT_THEORY></metadata><data><meanElements><EPOCH>2025-02-02T03:07:09.156576</EPOCH><MEAN_MOTION>14.78648575</MEAN_MOTION><ECCENTRICITY>.0007376</ECCENTRICITY><INCLINATION>48.4392</INCLINATION><RA_OF_ASC_NODE>276.5796</RA_OF_ASC_NODE><ARG_OF_PERICENTER>137.5391</ARG_OF_PERICENTER><MEAN_ANOMALY>222.6095</MEAN_ANOMALY></meanElements><tleParameters><EPHEMERIS_TYPE>0</EPHEMERIS_TYPE><CLASSIFICATION_TYPE>U</CLASSIFICATION_TYPE><NORAD_CAT_ID>33063</NORAD_CAT_ID><ELEMENT_SET_NO>999</ELEMENT_SET_NO><REV_AT_EPOCH>89422</REV_AT_EPOCH><BSTAR>.58409E-3</BSTAR><MEAN_MOTION_DOT>.4119E-4</MEAN_MOTION_DOT><MEAN_MOTION_DDOT>0</MEAN_MOTION_DDOT></tleParameters></data></segment></body></omm>

</ndm>
