ORBCOMM FM33            
1 25983U 99065D   25033.13156378  .00003213  00000+0  10681-2 0  9999
2 25983  45.0279 280.8092 0008692  97.4262 262.7575 14.39383943316674
ORBCOMM FM35            
1 25985U 99065F   25033.15216266  .00002942  00000+0  10395-2 0  9996
2 25985  45.0403  14.5588 0002472  44.8701 315.2347 14.36565505315551
ORBCOMM FM38            
1 33060U 08031A   25033.06543445  .00004726  00000+0  64093-3 0  9991
2 33060  48.4381 238.7565 0005973 180.4191 179.6720 14.80290495894719
ORBCOMM FM41            
1 33061U 08031B   25033.12853412  .00004420  00000+0  60651-3 0  9994
2 33061  48.4417 245.7894 0005051 167.0377 345.2160 14.79916531894664
ORBCOMM FM29            
1 33062U 08031C   25033.05308765  .00004627  00000+0  63283-3 0  9996
2 33062  48.4371 254.0978 0006771 164.0980 351.7919 14.79962680894511
ORBCOMM FM39            
1 33063U 08031D   25033.12996709  .00004119  00000+0  58409-3 0  9996
2 33063  48.4392 276.5796 0007376 137.5391 222.6095 14.78648575894227
